{"type": "FeatureCollection", "features": [ {"type": "Feature", "properties": {"norad_id": 66946, "name": "STARLINK-36115", "group": "last-30-days", "lat": 28.109718642759358, "lon": 48.82183926120296, "alt_km": 311.88044732791604, "timestamp": "2025-12-17T17:50:17.975424+00:00", "meta": {"OBJECT_NAME": "STARLINK-36115", "OBJECT_ID": "2025-286X", "EPOCH": "2025-12-17T06:00:00.999648", "MEAN_MOTION": 15.8684823, "ECCENTRICITY": 9.216e-05, "INCLINATION": 53.156, "RA_OF_ASC_NODE": 27.7015, "ARG_OF_PERICENTER": 81.004, "MEAN_ANOMALY": 17.1616, "EPHEMERIS_TYPE": 0, "CLASSIFICATION_TYPE": "U", "NORAD_CAT_ID": 66946, "ELEMENT_SET_NO": 999, "REV_AT_EPOCH": 271, "BSTAR": -0.0063951, "MEAN_MOTION_DOT": -0.01456379, "MEAN_MOTION_DDOT": 0}, "tle": {"line1": "1 66946U 25286X   25351.25001157 -.01456379  00000+0 -63951-2 0  9993", "line2": "2 66946  53.1560  27.7015 0000921  81.0040  17.1616 15.86848230  2717"}}, "geometry": {"type": "Point", "coordinates": [48.82183926120296, 28.109718642759358]}}, {"type": "Feature", "properties": {"norad_id": 66947, "name": "STARLINK-36089", "group": "last-30-days", "lat": 31.397630086319648, "lon": 52.437122230614676, "alt_km": 311.2439207979669, "timestamp": "2025-12-17T17:50:17.975436+00:00", "meta": {"OBJECT_NAME": "STARLINK-36089", "OBJECT_ID": "2025-286Y", "EPOCH": "2025-12-17T06:00:00.999648", "MEAN_MOTION": 15.86881708, "ECCENTRICITY": 9.652e-05, "INCLINATION": 53.1558, "RA_OF_ASC_NODE": 27.6923, "ARG_OF_PERICENTER": 82.2278, "MEAN_ANOMALY": 20.4355, "EPHEMERIS_TYPE": 0, "CLASSIFICATION_TYPE": "U", "NORAD_CAT_ID": 66947, "ELEMENT_SET_NO": 999, "REV_AT_EPOCH": 271, "BSTAR": -0.0064400561, "MEAN_MOTION_DOT": -0.01497826, "MEAN_MOTION_DDOT": 0}, "tle": {"line1": "1 66947U 25286Y   25351.25001157 -.01497826  00000+0 -64401-2 0  9997", "line2": "2 66947  53.1558  27.6923 0000965  82.2278  20.4355 15.86881708  2710"}}, "geometry": {"type": "Point", "coordinates": [52.437122230614676, 31.397630086319648]}}, {"type": "Feature", "properties": {"norad_id": 66948, "name": "STARLINK-36116", "group": "last-30-days", "lat": 29.950429809930856, "lon": 50.802849381712875, "alt_km": 311.6399841213215, "timestamp": "2025-12-17T17:50:17.975446+00:00", "meta": {"OBJECT_NAME": "STARLINK-36116", "OBJECT_ID": "2025-286Z", "EPOCH": "2025-12-17T06:00:00.999648", "MEAN_MOTION": 15.86857992, "ECCENTRICITY": 8.299e-05, "INCLINATION": 53.156, "RA_OF_ASC_NODE": 27.6964, "ARG_OF_PERICENTER": 86.5112, "MEAN_ANOMALY": 14.1718, "EPHEMERIS_TYPE": 0, "CLASSIFICATION_TYPE": "U", "NORAD_CAT_ID": 66948, "ELEMENT_SET_NO": 999, "REV_AT_EPOCH": 271, "BSTAR": -0.0064267597, "MEAN_MOTION_DOT": -0.01493438, "MEAN_MOTION_DDOT": 0}, "tle": {"line1": "1 66948U 25286Z   25351.25001157 -.01493438  00000+0 -64268-2 0  9994", "line2": "2 66948  53.1560  27.6964 0000829  86.5112  14.1718 15.86857992  2713"}}, "geometry": {"type": "Point", "coordinates": [50.802849381712875, 29.950429809930856]}}, {"type": "Feature", "properties": {"norad_id": 66949, "name": "STARLINK-36096", "group": "last-30-days", "lat": 32.85375256947996, "lon": 54.158602955955516, "alt_km": 310.976648083114, "timestamp": "2025-12-17T17:50:17.975458+00:00", "meta": {"OBJECT_NAME": "STARLINK-36096", "OBJECT_ID": "2025-286AA", "EPOCH": "2025-12-17T06:00:00.999648", "MEAN_MOTION": 15.86903922, "ECCENTRICITY": 8.728e-05, "INCLINATION": 53.156, "RA_OF_ASC_NODE": 27.688, "ARG_OF_PERICENTER": 82.2769, "MEAN_ANOMALY": 22.4054, "EPHEMERIS_TYPE": 0, "CLASSIFICATION_TYPE": "U", "NORAD_CAT_ID": 66949, "ELEMENT_SET_NO": 999, "REV_AT_EPOCH": 271, "BSTAR": -0.006428127, "MEAN_MOTION_DOT": -0.01496766, "MEAN_MOTION_DDOT": 0}, "tle": {"line1": "1 66949U 25286AA  25351.25001157 -.01496766  00000+0 -64281-2 0  9997", "line2": "2 66949  53.1560  27.6880 0000872  82.2769  22.4054 15.86903922  2710"}}, "geometry": {"type": "Point", "coordinates": [54.158602955955516, 32.85375256947996]}}, {"type": "Feature", "properties": {"norad_id": 66950, "name": "STARLINK-36111", "group": "last-30-days", "lat": 35.79185536241114, "lon": 57.91473641398045, "alt_km": 310.38809070059506, "timestamp": "2025-12-17T17:50:17.975468+00:00", "meta": {"OBJECT_NAME": "STARLINK-36111", "OBJECT_ID": "2025-286AB", "EPOCH": "2025-12-17T06:00:00.999648", "MEAN_MOTION": 15.86951385, "ECCENTRICITY": 9.328e-05, "INCLINATION": 53.156, "RA_OF_ASC_NODE": 27.6794, "ARG_OF_PERICENTER": 84.6945, "MEAN_ANOMALY": 24.1953, "EPHEMERIS_TYPE": 0, "CLASSIFICATION_TYPE": "U", "NORAD_CAT_ID": 66950, "ELEMENT_SET_NO": 999, "REV_AT_EPOCH": 271, "BSTAR": -0.0065039542, "MEAN_MOTION_DOT": -0.01515553, "MEAN_MOTION_DDOT": 0}, "tle": {"line1": "1 66950U 25286AB  25351.25001157 -.01515553  00000+0 -65040-2 0  9999", "line2": "2 66950  53.1560  27.6794 0000932  84.6945  24.1953 15.86951385  2718"}}, "geometry": {"type": "Point", "coordinates": [57.91473641398045, 35.79185536241114]}}, {"type": "Feature", "properties": {"norad_id": 66951, "name": "STARLINK-35999", "group": "last-30-days", "lat": 37.29011516889381, "lon": 60.00433394691633, "alt_km": 310.1262299618238, "timestamp": "2025-12-17T17:50:17.975480+00:00", "meta": {"OBJECT_NAME": "STARLINK-35999", "OBJECT_ID": "2025-286AC", "EPOCH": "2025-12-17T06:00:00.999648", "MEAN_MOTION": 15.86969513, "ECCENTRICITY": 9.034e-05, "INCLINATION": 53.156, "RA_OF_ASC_NODE": 27.6748, "ARG_OF_PERICENTER": 87.8634, "MEAN_ANOMALY": 23.2463, "EPHEMERIS_TYPE": 0, "CLASSIFICATION_TYPE": "U", "NORAD_CAT_ID": 66951, "ELEMENT_SET_NO": 999, "REV_AT_EPOCH": 271, "BSTAR": -0.0065089116, "MEAN_MOTION_DOT": -0.01517758, "MEAN_MOTION_DDOT": 0}, "tle": {"line1": "1 66951U 25286AC  25351.25001157 -.01517758  00000+0 -65089-2 0  9992", "line2": "2 66951  53.1560  27.6748 0000903  87.8634  23.2463 15.86969513  2714"}}, "geometry": {"type": "Point", "coordinates": [60.00433394691633, 37.29011516889381]}}, {"type": "Feature", "properties": {"norad_id": 66952, "name": "STARLINK-36122", "group": "last-30-days", "lat": 34.36061627670634, "lon": 56.03367679494184, "alt_km": 310.6585941219946, "timestamp": "2025-12-17T17:50:17.975490+00:00", "meta": {"OBJECT_NAME": "STARLINK-36122", "OBJECT_ID": "2025-286AD", "EPOCH": "2025-12-17T06:00:00.999648", "MEAN_MOTION": 15.86927003, "ECCENTRICITY": 9.496e-05, "INCLINATION": 53.1561, "RA_OF_ASC_NODE": 27.6838, "ARG_OF_PERICENTER": 83.9165, "MEAN_ANOMALY": 22.9062, "EPHEMERIS_TYPE": 0, "CLASSIFICATION_TYPE": "U", "NORAD_CAT_ID": 66952, "ELEMENT_SET_NO": 999, "REV_AT_EPOCH": 271, "BSTAR": -0.0064710616, "MEAN_MOTION_DOT": -0.01507181, "MEAN_MOTION_DDOT": 0}, "tle": {"line1": "1 66952U 25286AD  25351.25001157 -.01507181  00000+0 -64711-2 0  9993", "line2": "2 66952  53.1561  27.6838 0000949  83.9165  22.9062 15.86927003  2711"}}, "geometry": {"type": "Point", "coordinates": [56.03367679494184, 34.36061627670634]}}, {"type": "Feature", "properties": {"norad_id": 66953, "name": "HULIANWANG DIGUI-114", "group": "last-30-days", "lat": -9.517894387659368, "lon": -16.25747388446563, "alt_km": 1014.5105687271025, "timestamp": "2025-12-17T17:50:17.975500+00:00", "meta": {"OBJECT_NAME": "HULIANWANG DIGUI-114", "OBJECT_ID": "2025-287A", "EPOCH": "2025-12-15T20:15:59.937408", "MEAN_MOTION": 13.68689195, "ECCENTRICITY": 0.00087999, "INCLINATION": 86.496, "RA_OF_ASC_NODE": 345.0232, "ARG_OF_PERICENTER": 195.8466, "MEAN_ANOMALY": 164.2419, "EPHEMERIS_TYPE": 0, "CLASSIFICATION_TYPE": "U", "NORAD_CAT_ID": 66953, "ELEMENT_SET_NO": 999, "REV_AT_EPOCH": 95, "BSTAR": 2.5636052e-05, "MEAN_MOTION_DOT": 3.9e-07, "MEAN_MOTION_DDOT": 0}, "tle": {"line1": "1 66953U 25287A   25349.84444372  .00000039  00000+0  25636-4 0  9999", "line2": "2 66953  86.4960 345.0232 0008799 195.8466 164.2419 13.68689195   952"}}, "geometry": {"type": "Point", "coordinates": [-16.25747388446563, -9.517894387659368]}}, {"type": "Feature", "properties": {"norad_id": 66954, "name": "HULIANWANG DIGUI-115", "group": "last-30-days", "lat": -6.314851717700006, "lon": -16.053863727763748, "alt_km": 1013.9594928015385, "timestamp": "2025-12-17T17:50:17.975510+00:00", "meta": {"OBJECT_NAME": "HULIANWANG DIGUI-115", "OBJECT_ID": "2025-287B", "EPOCH": "2025-12-16T06:46:51.247776", "MEAN_MOTION": 13.68792269, "ECCENTRICITY": 0.00088535, "INCLINATION": 86.4976, "RA_OF_ASC_NODE": 344.8667, "ARG_OF_PERICENTER": 193.3846, "MEAN_ANOMALY": 166.7079, "EPHEMERIS_TYPE": 0, "CLASSIFICATION_TYPE": "U", "NORAD_CAT_ID": 66954, "ELEMENT_SET_NO": 999, "REV_AT_EPOCH": 101, "BSTAR": 2.3546402e-05, "MEAN_MOTION_DOT": 3.7e-07, "MEAN_MOTION_DDOT": 0}, "tle": {"line1": "1 66954U 25287B   25350.28253759  .00000037  00000+0  23546-4 0  9993", "line2": "2 66954  86.4976 344.8667 0008853 193.3846 166.7079 13.68792269  1019"}}, "geometry": {"type": "Point", "coordinates": [-16.053863727763748, -6.314851717700006]}}, {"type": "Feature", "properties": {"norad_id": 66955, "name": "HULIANWANG DIGUI-116", "group": "last-30-days", "lat": -6.225171681599303, "lon": -16.06022651249747, "alt_km": 1015.445670486657, "timestamp": "2025-12-17T17:50:17.975523+00:00", "meta": {"OBJECT_NAME": "HULIANWANG DIGUI-116", "OBJECT_ID": "2025-287C", "EPOCH": "2025-12-17T07:20:19.618368", "MEAN_MOTION": 13.68336187, "ECCENTRICITY": 0.00084332, "INCLINATION": 86.4912, "RA_OF_ASC_NODE": 344.4828, "ARG_OF_PERICENTER": 183.5256, "MEAN_ANOMALY": 176.5845, "EPHEMERIS_TYPE": 0, "CLASSIFICATION_TYPE": "U", "NORAD_CAT_ID": 66955, "ELEMENT_SET_NO": 999, "REV_AT_EPOCH": 115, "BSTAR": 0.00016199833, "MEAN_MOTION_DOT": 1.55e-06, "MEAN_MOTION_DDOT": 0}, "tle": {"line1": "1 66955U 25287C   25351.30578262  .00000155  00000+0  16200-3 0  9996", "line2": "2 66955  86.4912 344.4828 0008433 183.5256 176.5845 13.68336187  1153"}}, "geometry": {"type": "Point", "coordinates": [-16.06022651249747, -6.225171681599303]}}]}